NORAD_CAT_ID,OBJECT_NAME,OBJECT_TYPE,EPOCH,MEAN_MOTION,ECCENTRICITY,INCLINATION,RA_OF_ASC_NODE,ARG_OF_PERICENTER,MEAN_ANOMALY,BSTAR,MEAN_MOTION_DOT,MEAN_MOTION_DDOT,TLE_LINE0,TLE_LINE1,TLE_LINE2,SEMIMAJOR_AXIS,PERIOD,APOGEE,PERIGEE,DECAYED
53870.0,STARLINK-4732,PAYLOAD,2024-02-25 13:04:27,15.08852498,0.0002767,53.2183,0.1618,77.2666,282.8635,0.00011447,1.534e-05,0.0,0 STARLINK-4732,1 53870U 22114BE  24056.54476767  .00001534  00000-0  11447-3 0  9999,2 53870  53.2183   0.1618 0002767  77.2666 282.8635 15.08852498 80663,6917.842,95.437,541.621,537.793,0.0
53870.0,STARLINK-4732,PAYLOAD,2024-02-26 04:58:18,15.08855379,0.0001609,53.2186,357.1873,92.9946,267.1231,0.00026623,3.953e-05,0.0,0 STARLINK-4732,1 53870U 22114BE  24057.20716250  .00003953  00000-0  26623-3 0  9996,2 53870  53.2186 357.1873 0001609  92.9946 267.1231 15.08855379 81304,6917.833,95.437,540.811,538.585,0.0
53870.0,STARLINK-4732,PAYLOAD,2024-02-27 03:13:44,15.08833855,0.0002408,53.2177,353.0305,84.8466,275.2801,-0.00013043,-2.363e-05,0.0,0 STARLINK-4732,1 53870U 22114BE  24058.13453870 -.00002363  00000-0 -13043-3 0  9993,2 53870  53.2177 353.0305 0002408  84.8466 275.2801 15.08833855 80907,6917.899,95.438,541.43,538.098,0.0
53870.0,STARLINK-4732,PAYLOAD,2024-02-27 04:49:06,15.08842645,0.0001133,53.2192,352.7253,109.5858,250.5256,-0.00027457,-4.655e-05,0.0,0 STARLINK-4732,1 53870U 22114BE  24058.20076935 -.00004655  00000-0 -27457-3 0  9994,2 53870  53.2192 352.7253 0001133 109.5858 250.5256 15.08842645 80914,6917.872,95.437,540.521,538.954,0.0
53870.0,STARLINK-4732,PAYLOAD,2024-02-27 12:46:02,15.08834621,0.0002134,53.2186,351.2405,85.5904,274.5332,-4.7839e-05,-1.049e-05,0.0,0 STARLINK-4732,1 53870U 22114BE  24058.53197866 -.00001049  00000-0 -47839-4 0  9998,2 53870  53.2186 351.2405 0002134  85.5904 274.5332 15.08834621 81509,6917.897,95.438,541.238,538.286,0.0
53870.0,STARLINK-4732,PAYLOAD,2024-02-27 19:07:35,15.08829282,0.0001603,53.2181,350.0529,86.7773,273.3403,0.00010041,1.31e-05,0.0,0 STARLINK-4732,1 53870U 22114BE  24058.79694263  .00001310  00000-0  10041-3 0  9992,2 53870  53.2181 350.0529 0001603  86.7773 273.3403 15.08829282 81003,6917.913,95.438,540.887,538.669,0.0
53870.0,STARLINK-4732,PAYLOAD,2024-02-28 03:04:30,15.08841774,0.0001651,53.2181,348.5686,93.5883,266.5298,7.6028e-05,9.22e-06,0.0,0 STARLINK-4732,1 53870U 22114BE  24059.12813537  .00000922  00000-0  76028-4 0  9993,2 53870  53.2181 348.5686 0001651  93.5883 266.5298 15.08841774 81051,6917.875,95.437,540.882,538.598,0.0
53870.0,STARLINK-4732,PAYLOAD,2024-02-28 12:36:50,15.08838829,0.0001666,53.219,346.7797,90.3248,269.7935,6.6173e-05,7.65e-06,0.0,0 STARLINK-4732,1 53870U 22114BE  24059.52558094  .00000765  00000-0  66173-4 0  9996,2 53870  53.2190 346.7797 0001666  90.3248 269.7935 15.08838829 81117,6917.884,95.438,540.901,538.596,0.0
53870.0,STARLINK-4732,PAYLOAD,2024-02-28 18:58:23,15.08832743,0.0001757,53.2178,345.5921,88.391,271.7284,0.00013973,1.936e-05,0.0,0 STARLINK-4732,1 53870U 22114BE  24059.79054672  .00001936  00000-0  13973-3 0  9998,2 53870  53.2178 345.5921 0001757  88.3910 271.7284 15.08832743 81695,6917.903,95.438,540.983,538.552,0.0
53870.0,STARLINK-4732,PAYLOAD,2024-02-29 12:27:37,15.08840367,0.0001688,53.2188,342.3177,99.45,260.6683,0.00016915,2.405e-05,0.0,0 STARLINK-4732,1 53870U 22114BE  24060.51918363  .00002405  00000-0  16915-3 0  9997,2 53870  53.2188 342.3177 0001688  99.4500 260.6683 15.08840367 81809,6917.879,95.438,540.912,538.577,0.0
53870.0,STARLINK-4732,PAYLOAD,2024-02-29 21:59:56,15.08837094,0.0001315,53.2174,340.5349,104.1209,255.993,0.00023352,3.43e-05,0.0,0 STARLINK-4732,1 53870U 22114BE  24060.91662565  .00003430  00000-0  23352-3 0  9993,2 53870  53.2174 340.5349 0001315 104.1209 255.9930 15.08837094 81863,6917.889,95.438,540.664,538.845,0.0
53870.0,STARLINK-4732,PAYLOAD,2024-03-01 01:10:42,15.08845516,0.0001594,53.2176,339.9406,98.9686,261.1487,7.877e-05,9.66e-06,0.0,0 STARLINK-4732,1 53870U 22114BE  24061.04910106  .00000966  00000-0  78770-4 0  9991,2 53870  53.2176 339.9406 0001594  98.9686 261.1487 15.08845516 81346,6917.864,95.437,540.831,538.626,0.0
53870.0,STARLINK-4732,PAYLOAD,2024-03-01 21:50:42,15.08848781,0.0002036,53.2183,336.0724,101.3713,258.7508,-0.00015381,-2.736e-05,0.0,0 STARLINK-4732,1 53870U 22114BE  24061.91021864 -.00002736  00000-0 -15381-3 0  9998,2 53870  53.2183 336.0724 0002036 101.3713 258.7508 15.08848781 82015,6917.854,95.437,541.127,538.31,0.0
53870.0,STARLINK-4732,PAYLOAD,2024-03-02 01:01:29,15.08844027,0.0001718,53.2197,335.4788,117.23,242.8867,4.5132e-05,4.3e-06,0.0,0 STARLINK-4732,1 53870U 22114BE  24062.04270145  .00000430  00000-0  45132-4 0  9996,2 53870  53.2197 335.4788 0001718 117.2300 242.8867 15.08844027 81499,6917.868,95.437,540.922,538.545,0.0
53870.0,STARLINK-4732,PAYLOAD,2024-03-02 21:41:30,15.0884082,0.0001628,53.22,331.6134,108.526,251.5909,5.946e-05,6.58e-06,0.0,0 STARLINK-4732,1 53870U 22114BE  24062.90382385  .00000658  00000-0  59460-4 0  9992,2 53870  53.2200 331.6134 0001628 108.5260 251.5909 15.08840820 82161,6917.878,95.438,540.869,538.617,0.0
53870.0,STARLINK-4732,PAYLOAD,2024-03-03 10:24:35,15.08845643,0.0001493,53.2194,329.2316,84.4957,275.6205,-2.6069e-05,-7.03e-06,0.0,0 STARLINK-4732,1 53870U 22114BE  24063.43374266 -.00000703  00000-0 -26069-4 0  9992,2 53870  53.2194 329.2316 0001493  84.4957 275.6205 15.08845643 81706,6917.863,95.437,540.761,538.695,0.0
53870.0,STARLINK-4732,PAYLOAD,2024-03-03 18:21:31,15.08801546,0.0001762,53.22,327.7493,102.4244,257.6946,0.00050613,7.768e-05,0.0,0 STARLINK-4732,1 53870U 22114BE  24063.76495292  .00007768  00000-0  50613-3 0  9998,2 53870  53.2200 327.7493 0001762 102.4244 257.6946 15.08801546 82293,6917.998,95.44,541.082,538.644,0.0
53870.0,STARLINK-4732,PAYLOAD,2024-03-04 10:15:21,15.08848982,0.0001266,53.2176,324.7704,78.6055,281.5079,0.00017283,2.464e-05,0.0,0 STARLINK-4732,1 53870U 22114BE  24064.42733676  .00002464  00000-0  17283-3 0  9997,2 53870  53.2176 324.7704 0001266  78.6055 281.5079 15.08848982 82399,6917.853,95.437,540.594,538.842,0.0
53870.0,STARLINK-4732,PAYLOAD,2024-03-04 21:23:05,15.08828691,0.0001078,53.2191,322.6942,100.5392,259.5721,-7.1383e-06,-4.01e-06,0.0,0 STARLINK-4732,1 53870U 22114BE  24064.89103281 -.00000401  00000-0 -71383-5 0  9995,2 53870  53.2191 322.6942 0001078 100.5392 259.5721 15.08828691 81929,6917.915,95.438,540.526,539.034,0.0
53870.0,STARLINK-4732,PAYLOAD,2024-03-04 22:58:28,15.08836239,0.0001428,53.218,322.3939,80.6791,279.4362,-1.3466e-05,-5.02e-06,0.0,0 STARLINK-4732,1 53870U 22114BE  24064.95726981 -.00000502  00000-0 -13466-4 0  9999,2 53870  53.2180 322.3939 0001428  80.6791 279.4362 15.08836239 82470,6917.892,95.438,540.745,538.769,0.0
53870.0,STARLINK-4732,PAYLOAD,2024-03-05 02:09:13,15.08843842,0.000139,53.2185,321.8015,97.7773,262.3377,0.00010906,1.448e-05,0.0,0 STARLINK-4732,1 53870U 22114BE  24065.08974092  .00001448  00000-0  10906-3 0  9995,2 53870  53.2185 321.8015 0001390  97.7773 262.3377 15.08843842 81958,6917.869,95.437,540.695,538.772,0.0
53870.0,STARLINK-4732,PAYLOAD,2024-03-05 21:13:52,15.08831344,0.0001411,53.2185,318.2309,82.839,277.2763,8.6041e-05,1.081e-05,0.0,0 STARLINK-4732,1 53870U 22114BE  24065.88463223  .00001081  00000-0  86041-4 0  9999,2 53870  53.2185 318.2309 0001411  82.8390 277.2763 15.08831344 82070,6917.907,95.438,540.748,538.796,0.0
53870.0,STARLINK-4732,PAYLOAD,2024-03-06 00:24:38,15.08839239,0.0001488,53.2188,317.6379,88.6601,271.4561,-5.79e-06,-3.8e-06,0.0,0 STARLINK-4732,1 53870U 22114BE  24066.01711002 -.00000380  00000-0 -57900-5 0  9992,2 53870  53.2188 317.6379 0001488  88.6601 271.4561 15.08839239 82631,6917.883,95.438,540.777,538.718,0.0
53870.0,STARLINK-4732,PAYLOAD,2024-03-07 01:50:47,15.08846955,0.0001498,53.2178,312.8793,122.655,237.4587,6.4602e-05,7.4e-06,0.0,0 STARLINK-4732,1 53870U 22114BE  24067.07694243  .00000740  00000-0  64602-4 0  9990,2 53870  53.2178 312.8793 0001498 122.6550 237.4587 15.08846955 82251,6917.859,95.437,540.76,538.688,0.0
53870.0,STARLINK-4732,PAYLOAD,2024-03-07 09:47:44,15.08840613,0.0001644,53.219,311.3914,98.8739,261.2439,2.4557e-05,1.03e-06,0.0,0 STARLINK-4732,1 53870U 22114BE  24067.40814933  .00000103  00000-0  24557-4 0  9995,2 53870  53.2190 311.3914 0001644  98.8739 261.2439 15.08840613 82841,6917.879,95.438,540.881,538.606,0.0
53870.0,STARLINK-4732,PAYLOAD,2024-03-08 16:00:03,15.08845606,0.0001662,53.2181,305.7434,96.9438,263.1743,2.3005e-05,7.8e-07,0.0,0 STARLINK-4732,1 53870U 22114BE  24068.66670562  .00000078  00000-0  23005-4 0  9990,2 53870  53.2181 305.7434 0001662  96.9438 263.1743 15.08845606 82497,6917.863,95.437,540.878,538.579,0.0
53870.0,STARLINK-4732,PAYLOAD,2024-03-09 01:32:22,15.08842122,0.0001597,53.2177,303.9593,94.9008,265.2167,-9.7488e-06,-4.43e-06,0.0,0 STARLINK-4732,1 53870U 22114BE  24069.06414737 -.00000443  00000-0 -97488-5 0  9990,2 53870  53.2177 303.9593 0001597  94.9008 265.2167 15.08842122 83096,6917.874,95.437,540.844,538.634,0.0
53870.0,STARLINK-4732,PAYLOAD,2024-03-09 22:12:23,15.08840128,0.0001264,53.217,300.0922,94.7486,265.365,-6.2496e-06,-3.87e-06,0.0,0 STARLINK-4732,1 53870U 22114BE  24069.92526786 -.00000387  00000-0 -62496-5 0  9991,2 53870  53.2170 300.0922 0001264  94.7486 265.3650 15.08840128 83229,6917.88,95.438,540.619,538.871,0.0
53870.0,STARLINK-4732,PAYLOAD,2024-03-10 07:44:40,15.08857198,9.5e-05,53.2167,298.3084,77.2162,282.8936,4.4301e-05,4.18e-06,0.0,0 STARLINK-4732,1 53870U 22114BE  24070.32269447  .00000418  00000-0  44301-4 0  9992,2 53870  53.2167 298.3084 0000950  77.2162 282.8936 15.08857198 82743,6917.828,95.436,540.35,539.036,0.0
53870.0,STARLINK-4732,PAYLOAD,2024-03-10 22:03:10,15.08838265,0.0001077,53.2157,295.6323,77.2199,282.8913,5.6181e-05,6.06e-06,0.0,0 STARLINK-4732,1 53870U 22114BE  24070.91887065  .00000606  00000-0  56181-4 0  9997,2 53870  53.2157 295.6323 0001077  77.2199 282.8913 15.08838265 82838,6917.886,95.438,540.496,539.006,0.0
